OBJECT_NAME,OBJECT_ID,EPOCH,MEAN_MOTION,ECCENTRICITY,INCLINATION,RA_OF_ASC_NODE,ARG_OF_PERICENTER,MEAN_ANOMALY,EPHEMERIS_TYPE,CLASSIFICATION_TYPE,NORAD_CAT_ID,ELEMENT_SET_NO,REV_AT_EPOCH,BSTAR,MEAN_MOTION_DOT,MEAN_MOTION_DDOT
EUTELSAT KA-SAT 9A,2010-069A,2026-06-13T16:37:01.358112,1.00270867,.0003761,0.0608,9.9609,122.6141,27.6966,0,U,37258,999,4397,0,.72E-6,0
HISPASAT 30W-5,2010-070A,2026-06-13T19:51:17.399808,1.00272603,.000505,0.0484,135.5969,326.6723,67.6829,0,U,37264,999,5315,0,-.206E-5,0
KOREASAT 6,2010-070B,2026-06-13T19:02:41.411040,1.00270136,.0002007,0.0265,6.3443,87.1079,254.2064,0,U,37265,999,5673,0,0,0
BEIDOU-2 IGSO-3,2011-013A,2026-06-10T17:11:36.843360,1.00268972,.00343535,62.3981,40.2143,184.2630,40.3873,0,U,37384,999,5559,0,-.195E-5,0
INTELSAT 28 (IS-28),2011-016A,2026-06-13T19:50:47.449248,1.00270468,.000359,1.7973,82.6598,5.0407,80.4261,0,U,37392,999,5325,0,-.216E-5,0
YAHSAT 1A,2011-016B,2026-06-13T18:19:30.975744,1.00268577,.0002687,0.0215,358.3414,99.3217,131.7750,0,U,37393,999,4237,0,0,0
SBIRS GEO-1 (USA 230),2011-019A,2026-06-13T21:02:11.612256,1.00271858,.0002034,4.5292,53.1304,23.4711,192.9276,0,U,37481,999,5536,0,.106E-5,0
TELSTAR 14R,2011-021A,2026-06-13T19:41:48.309792,1.00269981,.0002155,0.0175,358.1001,58.7030,77.7735,0,U,37602,999,5580,0,-.27E-5,0
GSAT-8,2011-022A,2026-06-13T21:00:39.821760,1.00272375,.0002356,2.1223,81.8629,203.8512,346.7096,0,U,37605,999,5318,0,.93E-6,0
ST-2,2011-022B,2026-06-13T20:24:52.004160,1.00271432,.0001517,0.0229,355.0592,96.2651,205.0512,0,U,37606,999,5524,0,0,0
ZHONGXING-10,2011-026A,2026-06-13T20:27:08.733024,1.00268889,.0003283,1.0368,84.2568,3.2560,206.9330,0,U,37677,999,5496,0,-.178E-5,0
SES-3,2011-035A,2026-06-13T16:05:04.421184,1.00272843,.0002263,1.3175,83.1220,353.0724,324.0595,0,U,37748,999,5455,0,-.92E-6,0
KAZSAT-2,2011-035B,2026-06-13T20:24:29.540160,1.00271832,.0001117,0.0309,245.5575,275.1573,134.0777,0,U,37749,999,5336,0,-.188E-5,0
BEIDOU-2 IGSO-4,2011-038A,2026-06-12T15:58:24.326976,1.00285735,.01593391,54.5998,165.7139,231.3664,196.7326,0,U,37763,999,5460,0,.83E-6,0
ASTRA 1N,2011-041A,2026-06-13T20:05:19.676256,1.00269935,.0006002,0.0905,42.7419,50.7030,129.2367,0,U,37775,999,4449,0,.13E-5,0
BSAT-3C (JCSAT-110R),2011-041B,2026-06-13T20:55:53.579424,1.00272212,.0000102,0.0157,357.8432,332.9685,355.3013,0,U,37776,999,5043,0,-.341E-5,0
PAKSAT-1R,2011-042A,2026-06-13T19:20:38.571072,1.00276874,.0002986,0.6800,84.6263,349.3822,156.3539,0,U,37779,999,5444,0,.163E-5,0
SES-2,2011-049A,2026-06-13T19:35:03.956064,1.00270932,.0002624,0.0559,105.7847,336.5427,26.5688,0,U,37809,999,5393,0,-.185E-5,0
ARABSAT-5C,2011-049B,2026-06-13T20:05:34.651104,1.00270282,.0003379,0.0496,9.1380,90.8861,123.5074,0,U,37810,999,5400,0,.133E-5,0
EUTELSAT 7 WEST A,2011-051A,2026-06-13T18:15:03.338784,1.00271074,.0004024,0.0621,6.4091,88.6712,73.4331,0,U,37816,999,5384,0,-.5E-6,0
QUETZSAT 1,2011-054A,2026-06-13T19:37:48.694080,1.00271156,.0002506,0.0153,20.6047,64.1396,34.8433,0,U,37826,999,4984,0,-.231E-5,0
INTELSAT 18 (IS-18),2011-056A,2026-06-13T19:08:25.861056,1.00271856,.0002015,0.0195,290.8969,169.3074,269.0210,0,U,37834,999,5377,0,.63E-6,0
EUTELSAT 16A,2011-057A,2026-06-13T20:04:19.770816,1.00272993,.0005972,0.0443,11.3256,74.3334,133.5572,0,U,37836,999,730,0,.114E-5,0
VIASAT-1,2011-059A,2026-06-13T16:01:27.266880,1.00272508,.0002124,0.0179,334.2333,107.8938,305.1138,0,U,37843,999,4728,0,-.13E-6,0
ASIASAT 7,2011-069A,2026-06-13T20:51:07.751808,1.00273288,.0001237,0.0215,65.5921,348.2147,266.6584,0,U,37933,999,4482,0,-.324E-5,0
BEIDOU-2 IGSO-5,2011-073A,2026-06-13T18:56:52.407744,1.00273385,.0113838,47.6849,271.5886,221.6054,144.8748,0,U,37948,999,5310,0,-.164E-5,0
LUCH-5A,2011-074B,2026-06-13T12:14:12.133824,1.00269799,.00021773,8.7444,73.8614,24.6507,153.8242,0,U,37951,999,5301,0,-.46E-6,0
NIGCOMSAT 1R,2011-077A,2026-06-13T19:20:38.571072,1.00273798,.000236,0.0460,138.8742,208.8641,247.0482,0,U,38014,999,5292,0,.155E-5,0
WGS F4 (USA 233),2012-003A,2026-06-13T22:07:39.559296,1.00269894,.0000751,0.0237,4.9273,286.6385,30.9883,0,U,38070,999,4411,0,0,0
SES-4,2012-007A,2026-06-13T16:28:17.195232,1.00267567,.0002796,0.0242,27.5048,62.2969,37.2647,0,U,38087,999,5219,0,-.158E-5,0
BEIDOU-2 G5,2012-008A,2026-06-13T20:16:26.111424,1.00270981,.0009155,3.5640,69.7179,273.2926,281.9070,0,U,38091,999,5233,0,.65E-6,0
MUOS-1,2012-009A,2026-06-13T16:05:56.835744,1.00270309,.0058731,5.4692,47.1588,1.5706,354.7489,0,U,38093,999,5240,0,-.121E-5,0
INTELSAT 22 (IS-22),2012-011A,2026-06-13T20:33:18.417024,1.00272110,.0001567,0.0018,356.6636,84.9491,200.9663,0,U,38098,999,715,0,-.48E-6,0
APSTAR-7,2012-013A,2026-06-13T20:21:40.608288,1.00271490,.0002516,0.0206,349.3729,103.3927,191.2988,0,U,38107,999,5177,0,0,0
YAHSAT 1B,2012-016A,2026-06-13T20:26:25.144224,1.00270357,.0002417,0.0918,90.2833,16.8427,149.2289,0,U,38245,999,4557,0,.137E-5,0
AEHF-2 (USA 235),2012-019A,2026-06-13T09:39:11.910816,1.00270048,.00023733,6.6424,57.5171,15.5802,316.8743,0,U,38254,999,694,0,-.129E-5,0
JCSAT-13,2012-023A,2026-06-13T20:28:38.551872,1.00270171,.0002983,0.0176,349.2490,121.3019,222.7779,0,U,38331,999,5150,0,-.346E-5,0
VINASAT-2,2012-023B,2026-06-13T21:14:05.405856,1.00271997,.0002087,0.0153,2.2962,89.4977,260.7744,0,U,38332,999,4662,0,-.319E-5,0
NIMIQ 6,2012-026A,2026-06-13T14:25:37.454880,1.00270722,.0002455,0.0247,294.4196,148.2326,304.5693,0,U,38342,999,5037,0,-.162E-5,0
ZHONGXING-2A,2012-028A,2026-06-13T20:41:44.141280,1.00271621,.0003784,1.4443,83.9337,44.4862,182.4346,0,U,38352,999,5126,0,-.284E-5,0
INTELSAT 19 (IS-19),2012-030A,2026-06-13T19:04:26.242752,1.00270516,.0002828,0.0160,9.8244,80.2731,264.1143,0,U,38356,999,5041,0,-.46E-6,0
ECHOSTAR 17,2012-035A,2026-06-13T14:21:15.374304,1.00273226,.0001967,0.0265,6.2678,79.0165,284.8381,0,U,38551,999,5102,0,0,0
METEOSAT-10 (MSG-3),2012-035B,2026-06-13T19:59:57.691104,1.00276213,.0001424,4.6635,61.0338,328.4419,172.9579,0,U,38552,999,5082,0,.2E-7,0
SES-5,2012-036A,2026-06-13T16:35:53.965248,1.00270328,.0001819,0.0481,312.5463,136.7140,66.6946,0,U,38652,999,4442,0,.44E-6,0
INTELSAT 20 (IS-20),2012-043A,2026-06-13T20:05:04.399872,1.00271659,.0001395,0.0020,32.5927,141.8285,97.5106,0,U,38740,999,5071,0,-.14E-6,0
HYLAS 2,2012-043B,2026-06-13T19:39:03.574368,1.00270516,.00024,2.4184,81.1081,26.0048,17.2194,0,U,38741,999,5074,0,-.249E-5,0
INTELSAT 21 (IS-21),2012-045A,2026-06-13T19:43:18.165792,1.00271319,.0001259,0.0154,315.8397,142.8222,41.2990,0,U,38749,999,5049,0,-.275E-5,0
ASTRA 2F,2012-051A,2026-06-13T19:28:38.531712,1.00268125,.0001332,0.0713,259.2755,281.6156,41.5938,0,U,38778,999,4110,0,.16E-5,0
GSAT-10,2012-051B,2026-06-13T20:24:06.518880,1.00270224,.0007771,0.0893,263.4614,183.5888,204.1554,0,U,38779,999,5006,0,-.154E-5,0
INTELSAT 23 (IS-23),2012-057A,2026-06-13T19:44:40.535232,1.00274002,.0000424,0.0140,342.8665,83.5092,78.9139,0,U,38867,999,4992,0,-.274E-5,0
BEIDOU-2 G6,2012-059A,2026-06-13T20:23:44.612160,1.00272643,.0009644,4.4115,73.5584,324.3302,254.2356,0,U,38953,999,4987,0,-.169E-5,0
LUCH-5B,2012-061A,2026-06-12T23:23:12.366816,1.00272671,.00023465,10.4721,49.9205,149.8007,36.0976,0,U,38977,999,4956,0,-.133E-5,0
YAMAL 300K,2012-061B,2026-06-13T15:43:58.942848,1.00271234,.0001348,0.0114,272.6642,318.3169,89.9517,0,U,38978,999,4959,0,.82E-6,0
STAR ONE C3,2012-062A,2026-06-13T17:55:50.183040,1.00271709,.0002134,0.0260,64.3356,31.2476,0.4491,0,U,38991,999,4973,0,-.239E-5,0
EUTELSAT 21B,2012-062B,2026-06-13T20:05:57.115104,1.00273516,.000309,0.0661,5.0408,76.3777,143.8015,0,U,38992,999,4979,0,.14E-5,0
ECHOSTAR 16,2012-065A,2026-06-13T12:51:41.770368,1.00271025,.0001996,0.0260,10.6537,73.6614,308.9578,0,U,39008,999,4960,0,0,0
ZHONGXING-12,2012-067A,2026-06-13T20:28:53.105952,1.00272885,.000285,0.0269,76.2468,1.1402,219.4829,0,U,39017,999,4947,0,-.197E-5,0
EUTELSAT 70B,2012-069A,2026-06-13T21:14:35.854080,1.00271336,.0003964,0.0627,8.6951,66.8598,215.7720,0,U,39020,999,4947,0,-.33E-6,0
YAMAL 402,2012-070A,2026-06-13T20:15:26.206848,1.00270151,.0003629,1.2564,84.2034,358.2342,178.4761,0,U,39022,999,4936,0,.95E-6,0
SKYNET 5D,2012-075A,2026-06-13T20:14:48.766272,1.00268905,.0003445,0.0679,342.5921,108.9606,167.0934,0,U,39034,999,4912,0,.11E-5,0
MEXSAT 3,2012-075B,2026-06-13T16:01:27.266880,1.00268977,.0001198,0.0166,21.0725,51.4464,315.0468,0,U,39035,999,701,0,-.15E-6,0
TDRS 11,2013-004A,2026-06-13T19:10:03.206208,1.00268291,.0005561,3.5160,31.2081,18.9621,325.0672,0,U,39070,999,4665,0,.86E-6,0
AMAZONAS 3,2013-006A,2026-06-13T19:42:25.751232,1.00273548,.000177,0.0387,230.8115,257.9963,7.9132,0,U,39078,999,4488,0,-.272E-5,0
AZERSPACE 1,2013-006B,2026-06-13T21:27:38.020320,1.00268697,.0001138,0.0169,339.6357,131.2903,159.1897,0,U,39079,999,4877,0,.143E-5,0
SBIRS GEO-2 (USA 241),2013-011A,2026-06-13T16:20:17.961216,1.00271315,.0002229,4.4824,52.5089,21.5553,23.1964,0,U,39120,999,4850,0,-.279E-5,0
EUTELSAT 117 WEST A,2013-012A,2026-06-13T16:01:12.292032,1.00270626,.0002648,0.0123,351.6600,90.3040,303.5138,0,U,39122,999,4839,0,-.2E-7,0
ANIK G1,2013-014A,2026-06-13T16:03:57.029184,1.00270051,.0001448,0.0261,3.4454,72.4056,319.8020,0,U,39127,999,4821,0,0,0
ZHONGXING-11,2013-020A,2026-06-13T22:04:36.501888,1.00270585,.0002069,0.0484,61.5517,15.3135,254.4356,0,U,39157,999,4786,0,-.281E-5,0
EUTELSAT 7B,2013-022A,2026-06-13T20:01:50.011104,1.00272173,.0004642,0.0746,21.9449,13.9373,173.7185,0,U,39163,999,4791,0,.58E-6,0
WGS F5 (USA 243),2013-024A,2026-06-13T11:11:35.212128,1.00272719,.00001805,0.0011,15.4824,280.4763,81.2165,0,U,39168,999,4713,0,-.273E-5,0
SES-6,2013-026A,2026-06-13T19:48:17.686944,1.00270366,.0002466,0.0173,352.3015,106.4891,59.9176,0,U,39172,999,4769,0,-.251E-5,0
IRNSS-1A,2013-034A,2026-06-09T14:20:49.169184,1.00272948,.00174117,35.7049,63.9797,184.2474,279.8453,0,U,39199,999,4729,0,.7E-6,0
MUOS-2,2013-036A,2026-06-13T11:41:38.616864,1.00272560,.00508262,4.9882,45.5286,177.6465,25.9795,0,U,39206,999,4715,0,-.5E-7,0
